      2.10          N: GNSS NAV DATA                        RINEX VERSION / TYPE
fic2rin                                 08/16/2018 00:17:35 PGM / RUN BY / DATE
                                                            END OF HEADER
15 18  8 15 20  0  0.0-3.484236076474e-04 9.094947017729e-13 0.000000000000e+00
    9.900000000000e+01 1.184375000000e+01 5.048067415127e-09-1.432184557904e+00
    5.923211574554e-07 1.049808075186e-02 1.157633960247e-05 5.153800399780e+03
    3.312000000000e+05 2.346932888031e-07-2.123834628340e+00-1.210719347000e-07
    9.281374254492e-01 1.378750000000e+02 6.950782536450e-01-8.181769374964e-09
   -1.928651764659e-11 1.000000000000e+00 2.014000000000e+03 0.000000000000e+00
    2.400000000000e+00 0.000000000000e+00-1.071020960808e-08 9.900000000000e+01
    3.240060000000e+05 4.000000000000e+00
19 18  8 15 20  0  0.0-4.114806652069e-04 3.296918293927e-12 0.000000000000e+00
    5.500000000000e+01 2.384375000000e+01 3.924092025612e-09 2.253567618251e+00
    1.162290573120e-06 9.782736771740e-03 1.098960638046e-05 5.153726718903e+03
    3.312000000000e+05 7.078051567078e-08 1.201075518805e+00-1.285225152969e-07
    9.805598864494e-01 1.761562500000e+02 1.259709291514e+00-7.645318458201e-09
    3.164417524977e-10 1.000000000000e+00 2.014000000000e+03 0.000000000000e+00
    2.400000000000e+00 0.000000000000e+00-1.536682248116e-08 5.500000000000e+01
    3.240060000000e+05 4.000000000000e+00
32 18  8 15 20  0  0.0-4.506600089371e-04 9.663381206337e-12 0.000000000000e+00
    7.200000000000e+01 1.643750000000e+01 4.567690262634e-09 1.827075737495e-01
    8.754432201385e-07 2.292127930559e-03 1.100637018681e-05 5.153697584152e+03
    3.312000000000e+05 2.980232238770e-08-2.045703181486e+00 4.097819328308e-08
    9.568971236118e-01 1.650937500000e+02-2.524559366397e+00-8.051406801982e-09
    1.785788670980e-12 1.000000000000e+00 2.014000000000e+03 0.000000000000e+00
    2.400000000000e+00 0.000000000000e+00 4.656612873077e-10 7.200000000000e+01
    3.240060000000e+05 4.000000000000e+00
26 18  8 15 20  0  0.0-5.068397149444e-05 1.182343112305e-11 0.000000000000e+00
    6.200000000000e+01-4.715625000000e+01 4.620549607295e-09 1.359868775101e+00
   -2.443790435791e-06 2.830272074789e-03 6.899237632751e-06 5.153705574036e+03
    3.312000000000e+05-1.490116119385e-08 3.662084206792e-02 5.587935447693e-09
    9.551836866631e-01 2.432187500000e+02 8.914926222461e-02-8.253200921803e-09
   -3.189418566371e-10 1.000000000000e+00 2.014000000000e+03 0.000000000000e+00
    2.400000000000e+00 0.000000000000e+00 7.450580596924e-09 6.200000000000e+01
    3.240060000000e+05 4.000000000000e+00
18 18  8 15 20  0  0.0 4.602083936334e-05 4.320099833421e-12 0.000000000000e+00
    7.900000000000e+01 2.393750000000e+01 5.124856327980e-09-2.954653402042e+00
    1.119449734688e-06 1.491761102807e-02 4.345551133156e-06 5.153633375168e+03
    3.312000000000e+05 2.887099981308e-07 2.107373385497e+00-5.587935447693e-08
    9.504687455812e-01 2.882500000000e+02 1.336133040447e+00-8.313560578882e-09
    3.250135381184e-10 1.000000000000e+00 2.014000000000e+03 0.000000000000e+00
    2.400000000000e+00 0.000000000000e+00-6.519258022308e-09 7.900000000000e+01
    3.240060000000e+05 4.000000000000e+00
31 18  8 15 20  0  0.0 1.004375517368e-04-2.614797267597e-12 0.000000000000e+00
    8.400000000000e+01 4.662500000000e+01 4.684837999450e-09 2.722771507711e+00
    2.389773726463e-06 8.823380921967e-03 5.198642611504e-06 5.153716674805e+03
    3.312000000000e+05-1.247972249985e-07-9.604308358794e-01 7.078051567078e-08
    9.622169944858e-01 2.830937500000e+02-1.201183894702e-01-8.210699151434e-09
    5.857386840816e-11 1.000000000000e+00 2.014000000000e+03 0.000000000000e+00
    2.400000000000e+00 0.000000000000e+00-1.350417733192e-08 8.400000000000e+01
    3.240060000000e+05 4.000000000000e+00
29 18  8 15 20  0  0.0 3.953622654080e-04-7.162270776462e-12 0.000000000000e+00
    8.100000000000e+01 1.862500000000e+01 3.854446267444e-09 1.328775118417e-01
    7.133930921555e-07 8.333345176652e-04 1.061335206032e-05 5.153650556564e+03
    3.312000000000e+05 0.000000000000e+00 1.164961254547e+00 9.313225746155e-09
    9.843123766529e-01 1.874687500000e+02 1.511800132224e+00-7.741751046434e-09
    2.903692379014e-10 1.000000000000e+00 2.014000000000e+03 0.000000000000e+00
    2.400000000000e+00 0.000000000000e+00-1.024454832077e-08 8.100000000000e+01
    3.240060000000e+05 4.000000000000e+00
27 18  8 15 20  0  0.0 3.536669537425e-04-2.955857780762e-12 0.000000000000e+00
    1.000000000000e+02 1.975000000000e+01 3.990166206439e-09-5.314545691246e-01
    1.143664121628e-06 6.009667529725e-03 9.877607226372e-06 5.153696432114e+03
    3.312000000000e+05 9.126961231232e-08 1.099723492195e+00 3.725290298462e-08
    9.777021710713e-01 1.991250000000e+02 4.567531692371e-01-7.908186550570e-09
    2.407243128482e-10 1.000000000000e+00 2.014000000000e+03 0.000000000000e+00
    3.400000000000e+00 0.000000000000e+00 1.862645149231e-09 1.000000000000e+02
    3.240060000000e+05 4.000000000000e+00
20 18  8 15 20  0  0.0 5.142050795257e-04 6.821210263297e-13 0.000000000000e+00
    8.100000000000e+01-6.781250000000e+01 5.555588555420e-09-2.824841929502e+00
   -3.417953848839e-06 4.126723040827e-03 6.090849637985e-06 5.153672191620e+03
    3.312000000000e+05 1.303851604462e-08 3.086867900393e+00 8.940696716309e-08
    9.292311732254e-01 2.447500000000e+02 2.072292198877e+00-8.592143611555e-09
   -2.485817830005e-10 1.000000000000e+00 2.014000000000e+03 0.000000000000e+00
    2.400000000000e+00 0.000000000000e+00-8.381903171539e-09 8.100000000000e+01
    3.240060000000e+05 4.000000000000e+00
28 18  8 15 20  0  0.0 7.384149357677e-04 2.273736754432e-12 0.000000000000e+00
    1.100000000000e+02-4.009375000000e+01 4.032667976808e-09 3.801138988239e-01
   -2.184882760048e-06 1.947194372769e-02 8.473172783852e-06 5.153685031891e+03
    3.312000000000e+05-2.477318048477e-07 1.437930604610e-01-1.173466444016e-07
    9.854396589001e-01 2.328125000000e+02-1.516715877830e+00-8.237485981498e-09
   -4.057311860468e-10 1.000000000000e+00 2.014000000000e+03 0.000000000000e+00
    4.850000000000e+00 0.000000000000e+00-1.117587089539e-08 1.100000000000e+02
    3.240060000000e+05 4.000000000000e+00
 1 18  8 15 19 59 44.0-7.682293653488e-05-4.206412995700e-12 0.000000000000e+00
    5.000000000000e+00 1.556250000000e+01 4.674480425158e-09-2.721820104790e+00
    6.426125764847e-07 8.067918708548e-03 4.768371582031e-06 5.153662628174e+03
    3.311840000000e+05 4.656612873077e-08 2.156284272569e+00-1.508742570877e-07
    9.720759315044e-01 2.947500000000e+02 6.806914198613e-01-8.187841056445e-09
    2.996553389905e-10 1.000000000000e+00 2.014000000000e+03 0.000000000000e+00
    2.400000000000e+00 0.000000000000e+00 5.587935447693e-09 5.000000000000e+00
    3.244260000000e+05 4.000000000000e+00
24 18  8 15 19 59 44.0-5.400506779552e-05-5.684341886081e-13 0.000000000000e+00
    1.000000000000e+00 5.575000000000e+01 5.119141804232e-09-2.374268961558e+00
    2.941116690636e-06 7.113252067938e-03 5.466863512993e-06 5.153631189346e+03
    3.311840000000e+05-1.676380634308e-08-1.034398640867e+00-8.568167686462e-08
    9.406397018306e-01 2.634375000000e+02 5.331079518232e-01-8.439280101319e-09
    2.403671551140e-10 1.000000000000e+00 2.014000000000e+03 0.000000000000e+00
    2.400000000000e+00 0.000000000000e+00 2.793967723846e-09 1.000000000000e+00
    3.261960000000e+05 4.000000000000e+00
27 18  8 15 19 59 44.0 3.536655567586e-04-2.955857780762e-12 0.000000000000e+00
    3.200000000000e+01 1.975000000000e+01 3.990166206439e-09-5.337865673360e-01
    1.143664121628e-06 6.009667413309e-03 9.877607226372e-06 5.153696420670e+03
    3.311840000000e+05 9.126961231232e-08 1.099723612154e+00 3.725290298462e-08
    9.777021652196e-01 1.991250000000e+02 4.567515658789e-01-7.908186550570e-09
    2.407243128482e-10 1.000000000000e+00 2.014000000000e+03 0.000000000000e+00
    2.400000000000e+00 0.000000000000e+00 1.862645149231e-09 3.200000000000e+01
    3.311760000000e+05 4.000000000000e+00
 1 18  8 15 21 59 44.0-7.685273885727e-05-4.206412995700e-12 0.000000000000e+00
    3.300000000000e+01 1.393750000000e+01 4.602691720585e-09-1.671552955987e+00
    6.239861249924e-07 8.067549322732e-03 4.805624485016e-06 5.153663997650e+03
    3.383840000000e+05 9.685754776001e-08 2.156224815190e+00-3.911554813385e-08
    9.720784755189e-01 2.895937500000e+02 6.806127806999e-01-8.200698734876e-09
    3.860875106660e-10 1.000000000000e+00 2.014000000000e+03 0.000000000000e+00
    2.400000000000e+00 0.000000000000e+00 5.587935447693e-09 3.300000000000e+01
    3.312060000000e+05 4.000000000000e+00
24 18  8 15 21 59 44.0-5.400925874710e-05-5.684341886081e-13 0.000000000000e+00
    3.000000000000e+00 5.756250000000e+01 5.211288499655e-09-1.324148619511e+00
    2.983957529068e-06 7.113484549336e-03 5.314126610756e-06 5.153629896164e+03
    3.383840000000e+05 1.937150955200e-07-1.034458734616e+00-1.564621925354e-07
    9.406408502213e-01 2.681875000000e+02 5.331990316399e-01-8.518926276045e-09
    9.000374901741e-11 1.000000000000e+00 2.014000000000e+03 0.000000000000e+00
    2.400000000000e+00 0.000000000000e+00 2.793967723846e-09 3.000000000000e+00
    3.312060000000e+05 4.000000000000e+00
27 18  8 15 21 59 44.0 3.536441363394e-04-2.955857780762e-12 0.000000000000e+00
    3.300000000000e+01 6.781250000000e+00 3.974808423868e-09 5.164203267966e-01
    3.762543201447e-07 6.007803836837e-03 1.024268567562e-05 5.153692886353e+03
    3.383840000000e+05 3.352761268616e-08 1.099667076222e+00 1.303851604462e-07
    9.777040172739e-01 1.940000000000e+02 4.567084361281e-01-7.847469735756e-09
    1.967939115420e-10 1.000000000000e+00 2.014000000000e+03 0.000000000000e+00
    2.400000000000e+00 0.000000000000e+00 1.862645149231e-09 3.300000000000e+01
    3.312060000000e+05 4.000000000000e+00
